{
    "links": {
        "self": "http://www.neowsapp.com/rest/v1/neo/3761270?api_key=iIulBulltgU6a56xZRHN4H3l9WmuAYTsLGpBGhQ2"
    },
    "id": "3761270",
    "neo_reference_id": "3761270",
    "name": "(2016 TJ93)",
    "designation": "2016 TJ93",
    "nasa_jpl_url": "http://ssd.jpl.nasa.gov/sbdb.cgi?sstr=3761270",
    "absolute_magnitude_h": 21.7,
    "estimated_diameter": {
        "kilometers": {
            "estimated_diameter_min": 0.1214940408,
            "estimated_diameter_max": 0.2716689341
        },
        "meters": {
            "estimated_diameter_min": 121.4940407996,
            "estimated_diameter_max": 271.6689340891
        },
        "miles": {
            "estimated_diameter_min": 0.0754928736,
            "estimated_diameter_max": 0.1688071972
        },
        "feet": {
            "estimated_diameter_min": 398.6025088171,
            "estimated_diameter_max": 891.3023057169
        }
    },
    "is_potentially_hazardous_asteroid": false,
    "close_approach_data": [
        {
            "close_approach_date": "2016-10-28",
            "close_approach_date_full": "2016-Oct-28 21:20",
            "epoch_date_close_approach": 1477689600000,
            "relative_velocity": {
                "kilometers_per_second": "13.0716596412",
                "kilometers_per_hour": "47057.9747082883",
                "miles_per_hour": "29239.9954513806"
            },
            "miss_distance": {
                "astronomical": "0.281021918",
                "lunar": "109.317526102",
                "kilometers": "42040280.35611466",
                "miles": "26122618.891355908"
            },
            "orbiting_body": "Earth"
        }
    ],
    "orbital_data": {
        "orbit_id": "6",
        "orbit_determination_date": "2017-04-06 08:22:59",
        "first_observation_date": "2016-10-13",
        "last_observation_date": "2016-11-20",
        "data_arc_in_days": 38,
        "observations_used": 36,
        "orbit_uncertainty": "6",
        "minimum_orbit_intersection": ".278526",
        "jupiter_tisserand_invariant": "3.194",
        "epoch_osculation": "2459000.5",
        "eccentricity": ".4897933613428408",
        "semi_major_axis": "2.490153954929172",
        "inclination": "23.68042169750881",
        "ascending_node_longitude": "37.89100182244799",
        "orbital_period": "1435.283606447845",
        "perihelion_distance": "1.270493079083244",
        "perihelion_argument": "356.0894671194606",
        "aphelion_distance": "3.7098148307751",
        "perihelion_time": "2459117.966065356883",
        "mean_anomaly": "330.5369842318934",
        "mean_motion": ".2508215089914925",
        "equinox": "J2000",
        "orbit_class": {
            "orbit_class_type": "AMO",
            "orbit_class_description": "Near-Earth asteroid orbits similar to that of 1221 Amor",
            "orbit_class_range": "1.017 AU < q (perihelion) < 1.3 AU"
        }
    },
    "is_sentry_object": false
}